H1 CPF  1  SGF 2022  1 26  2  5261 larets    
H2  0304206 5557    27944 2022  1 25  0  0  0 2022  1 30 23 57  0   180 1 1  0 0 0
H9
10 0 59607  21960.00000  0   3498000.507  -6080258.250   -765376.549
10 0 59607  22140.00000  0   3256438.702  -6231783.704    572728.392
10 0 59607  22320.00000  0   2894975.254  -6147637.307   1889741.475
10 0 59607  22500.00000  0   2432983.222  -5827950.966   3137167.324
10 0 59607  22680.00000  0   1893434.362  -5282125.887   4269108.258
10 0 59607  22860.00000  0   1301787.830  -4528531.045   5243999.597
10 0 59607  23040.00000  0    684801.857  -3593826.566   6026156.825
10 0 59607  23220.00000  0     69325.900  -2511945.657   6587071.813
10 0 59607  23400.00000  0   -518864.375  -1322796.218   6906409.215
10 0 59607  23580.00000  0  -1056137.711    -70748.444   6972695.511
10 0 59607  23760.00000  0  -1521947.924   1197043.075   6783692.960
10 0 59607  23940.00000  0  -1899612.614   2432422.403   6346449.773
10 0 59607  24120.00000  0  -2176905.774   3588059.823   5677033.593
10 0 59607  24300.00000  0  -2346447.245   4619267.184   4799957.045
10 0 59607  24480.00000  0  -2405879.238   5485742.221   3747307.480
10 0 59607  24660.00000  0  -2357822.925   6153174.658   2557593.840
10 0 59607  24840.00000  0  -2209615.887   6594639.636   1274343.503
10 0 59607  25020.00000  0  -1972840.884   6791715.005    -55500.545
10 0 59607  25200.00000  0  -1662668.592   6735266.469  -1383322.377
10 0 59607  25380.00000  0  -1297046.886   6425856.344  -2660650.062
10 0 59607  25560.00000  0   -895777.001   5873739.307  -3840956.033
10 0 59607  25740.00000  0   -479532.978   5098469.824  -4881350.590
10 0 59607  25920.00000  0    -68873.637   4128152.889  -5744117.085
10 0 59607  26100.00000  0    316709.887   2998375.913  -6398036.326
10 0 59607  26280.00000  0    659667.310   1750870.074  -6819459.580
10 0 59607  26460.00000  0    945146.448    431965.291  -6993105.813
10 0 59607  26640.00000  0   1161609.617   -909107.277  -6912578.908
10 0 59607  26820.00000  0   1301288.911  -2222016.008  -6580593.974
10 0 59607  27000.00000  0   1360467.597  -3457175.834  -6008913.287
10 0 59607  27180.00000  0   1339580.415  -4567602.143  -5217995.312
10 0 59607  27360.00000  0   1243124.727  -5510714.923  -4236337.648
10 0 59607  27540.00000  0   1079384.667  -6250020.610  -3099523.608
10 0 59607  27720.00000  0    859972.292  -6756604.916  -1848983.353
10 0 59607  27900.00000  0    599205.680  -7010357.782   -530498.946
10 0 59607  28080.00000  0    313348.125  -7000856.689    807497.683
10 0 59607  28260.00000  0     19747.289  -6727850.481   2115758.999
10 0 59607  28440.00000  0   -264079.845  -6201312.250   3346108.307
10 0 59607  28620.00000  0   -521365.803  -5441044.875   4453286.122
10 0 59607  28800.00000  0   -736965.312  -4475869.357   5396657.408
10 0 59607  28980.00000  0   -898134.184  -3342452.880   6141715.908
10 0 59607  29160.00000  0   -995176.903  -2083833.468   6661330.398
10 0 59607  29340.00000  0  -1021933.759   -747721.759   6936686.805
10 0 59607  29520.00000  0   -976092.508    615341.122   6957922.576
10 0 59607  29700.00000  0   -859313.862   1953910.691   6724442.758
10 0 59607  29880.00000  0   -677162.747   3217582.501   6244914.659
10 0 59607  30060.00000  0   -438852.353   4358888.770   5536946.213
10 0 59607  30240.00000  0   -156812.344   5335088.457   4626456.819
10 0 59607  30420.00000  0    153904.070   6109791.644   3546753.137
10 0 59607  30600.00000  0    476349.088   6654350.510   2337333.045
10 0 59607  30780.00000  0    792515.956   6948972.066   1042446.779
10 0 59607  30960.00000  0   1084243.649   6983469.872   -290545.012
10 0 59607  31140.00000  0   1334141.717   6757624.275  -1612932.464
10 0 59607  31320.00000  0   1526484.871   6281136.374  -2876466.655
10 0 59607  31500.00000  0   1648033.394   5573183.195  -4035140.392
10 0 59607  31680.00000  0   1688741.007   4661596.829  -5046866.803
10 0 59607  31860.00000  0   1642315.796   3581713.468  -5874983.838
10 0 59607  32040.00000  0   1506608.947   2374960.713  -6489534.542
10 0 59607  32220.00000  0   1283816.805   1087248.004  -6868290.897
10 0 59607  32400.00000  0    980492.454   -232770.008  -6997502.579
10 0 59607  32580.00000  0    607365.190  -1535502.428  -6872363.474
10 0 59607  32760.00000  0    178972.455  -2772245.290  -6497186.080
10 0 59607  32940.00000  0   -286884.331  -3896968.858  -5885291.503
10 0 59607  33120.00000  0   -769850.089  -4868028.327  -5058602.231
10 0 59607  33300.00000  0  -1247868.944  -5649736.033  -4046934.616
10 0 59607  33480.00000  0  -1698155.079  -6213738.985  -2886994.602
10 0 59607  33660.00000  0  -2098241.045  -6540134.484  -1621091.325
10 0 59607  33840.00000  0  -2427055.157  -6618265.210   -295602.789
10 0 59607  34020.00000  0  -2665972.097  -6447139.289   1040756.314
10 0 59607  34200.00000  0  -2799778.711  -6035437.769   2338787.779
10 0 59607  34380.00000  0  -2817498.658  -5401103.704   3550695.359
10 0 59607  34560.00000  0  -2713028.407  -4570534.393   4631909.523
10 0 59607  34740.00000  0  -2485552.804  -3577427.267   5542765.827
10 0 59607  34920.00000  0  -2139723.228  -2461343.374   6249968.852
10 0 59607  35100.00000  0  -1685588.370  -1266067.872   6727785.846
10 0 59607  35280.00000  0  -1138288.186    -37847.769   6958942.075
10 0 59607  35460.00000  0   -517530.237   1176422.173   6935194.163
10 0 59607  35640.00000  0    153131.756   2330992.982   6657587.720
10 0 59607  35820.00000  0    847198.486   3382983.058   6136395.925
10 0 59607  36000.00000  0   1536270.100   4293968.577   5390742.689
10 0 59607  36180.00000  0   2191200.231   5031396.644   4447921.507
10 0 59607  36360.00000  0   2783320.101   5569770.588   3342421.118
10 0 59607  36540.00000  0   3285683.374   5891561.206   2114685.243
10 0 59607  36720.00000  0   3674277.379   5987808.375    809631.205
10 0 59607  36900.00000  0   3929134.312   5858365.204   -525015.664
10 0 59607  37080.00000  0   4035290.350   5511779.329  -1840497.123
10 0 59607  37260.00000  0   3983544.331   4964817.826  -3088832.417
10 0 59607  37440.00000  0   3770975.755   4241662.778  -4224587.999
10 0 59607  37620.00000  0   3401197.439   3372821.855  -5206527.543
10 0 59607  37800.00000  0   2884339.485   2393817.809  -5999080.247
10 0 59607  37980.00000  0   2236768.178   1343719.230  -6573579.879
10 0 59607  38160.00000  0   1480557.546    263581.909  -6909240.094
10 0 59607  38340.00000  0    642740.160   -805135.076  -6993853.546
10 0 59607  38520.00000  0   -245644.185  -1822130.675  -6824209.065
10 0 59607  38700.00000  0  -1150670.201  -2749749.572  -6406216.939
10 0 59607  38880.00000  0  -2036791.604  -3554360.623  -5754746.757
10 0 59607  39060.00000  0  -2868212.454  -4207584.904  -4893166.599
10 0 59607  39240.00000  0  -3610327.545  -4687334.798  -3852586.151
10 0 59607  39420.00000  0  -4231177.804  -4978618.235  -2670799.515
10 0 59607  39600.00000  0  -4702854.564  -5074065.247  -1390951.506
10 0 59607  39780.00000  0  -5002783.689  -4974143.660    -59963.339
10 0 59607  39960.00000  0  -5114816.687  -4687043.432   1273224.902
10 0 59607  40140.00000  0  -5030062.850  -4228225.493   2559521.126
10 0 59607  40320.00000  0  -4747409.435  -3619651.349   3751564.389
10 0 59607  40500.00000  0  -4273703.292  -2888739.739   4805530.501
10 0 59607  40680.00000  0  -3623585.558  -2067108.336   5682778.042
10 0 59607  40860.00000  0  -2818997.947  -1189175.605   6351263.178
10 0 59607  41040.00000  0  -1888391.303   -290692.407   6786686.838
10 0 59607  41220.00000  0   -865668.257    592734.431   6973333.298
10 0 59607  41400.00000  0    211083.165   1427054.494   6904585.951
10 0 59607  41580.00000  0   1301019.415   2181082.044   6583128.773
10 0 59607  41760.00000  0   2362092.610   2827657.164   6020827.250
10 0 59607  41940.00000  0   3352670.133   3344620.919   5238298.804
10 0 59607  42120.00000  0   4233173.166   3715579.861   4264180.041
10 0 59607  42300.00000  0   4967669.010   3930429.952   3134104.064
10 0 59607  42480.00000  0   5525362.694   3985623.230   1889414.090
10 0 59607  42660.00000  0   5881908.265   3884155.872    575645.381
10 0 59607  42840.00000  0   6020477.053   3635280.610   -759162.653
10 0 59607  43020.00000  0   5932524.834   3253954.468  -2066256.300
10 0 59607  43200.00000  0   5618219.270   2760052.516  -3297976.863
10 0 59607  43380.00000  0   5086511.779   2177392.467  -4409512.192
10 0 59607  43560.00000  0   4354855.455   1532619.197  -5360521.972
10 0 59607  43740.00000  0   3448584.619    854006.706  -6116567.377
10 0 59607  43920.00000  0   2399999.689    170240.652  -6650303.711
10 0 59607  44100.00000  0   1247197.491   -490768.169  -6942409.106
10 0 59607  44280.00000  0     32696.701  -1102996.209  -6982236.490
10 0 59607  44460.00000  0  -1198103.344  -1643308.786  -6768178.861
10 0 59607  44640.00000  0  -2398581.388  -2092319.685  -6307745.584
10 0 59607  44820.00000  0  -3522628.041  -2435086.891  -5617344.938
10 0 59607  45000.00000  0  -4526404.128  -2661622.647  -4721773.184
10 0 59607  45180.00000  0  -5370074.646  -2767201.219  -3653403.685
10 0 59607  45360.00000  0  -6019443.467  -2752444.138  -2451079.638
10 0 59607  45540.00000  0  -6447413.979  -2623173.421  -1158733.801
10 0 59607  45720.00000  0  -6635195.687  -2390032.844    176223.682
10 0 59607  45900.00000  0  -6573185.353  -2067890.188   1504687.933
10 0 59607  46080.00000  0  -6261465.088  -1675047.504   2777735.350
10 0 59607  46260.00000  0  -5709879.992  -1232302.004   3948499.575
10 0 59607  46440.00000  0  -4937695.337   -761908.594   4973957.206
10 0 59607  46620.00000  0  -3972852.516   -286502.192   5816535.773
10 0 59607  46800.00000  0  -2850882.286    171961.015   6445484.226
10 0 59607  46980.00000  0  -1613523.096    593194.309   6837965.490
10 0 59607  47160.00000  0   -307113.285    959455.801   6979838.432
10 0 59607  47340.00000  0   1019172.062   1256279.634   6866119.645
99
